{
    "links": {
        "self": "http://www.neowsapp.com/rest/v1/neo/3712423?api_key=iIulBulltgU6a56xZRHN4H3l9WmuAYTsLGpBGhQ2"
    },
    "id": "3712423",
    "neo_reference_id": "3712423",
    "name": "(2015 DY180)",
    "designation": "2015 DY180",
    "nasa_jpl_url": "http://ssd.jpl.nasa.gov/sbdb.cgi?sstr=3712423",
    "absolute_magnitude_h": 23.6,
    "estimated_diameter": {
        "kilometers": {
            "estimated_diameter_min": 0.0506471459,
            "estimated_diameter_max": 0.1132504611
        },
        "meters": {
            "estimated_diameter_min": 50.6471458835,
            "estimated_diameter_max": 113.2504610618
        },
        "miles": {
            "estimated_diameter_min": 0.0314706677,
            "estimated_diameter_max": 0.0703705522
        },
        "feet": {
            "estimated_diameter_min": 166.1651821003,
            "estimated_diameter_max": 371.5566426699
        }
    },
    "is_potentially_hazardous_asteroid": false,
    "close_approach_data": [
        {
            "close_approach_date": "2015-02-27",
            "close_approach_date_full": "2015-Feb-27 11:14",
            "epoch_date_close_approach": 1425035640000,
            "relative_velocity": {
                "kilometers_per_second": "5.2963223862",
                "kilometers_per_hour": "19066.7605902497",
                "miles_per_hour": "11847.3435456471"
            },
            "miss_distance": {
                "astronomical": "0.2560466787",
                "lunar": "99.6021580143",
                "kilometers": "38304037.754094369",
                "miles": "23801025.3921815322"
            },
            "orbiting_body": "Earth"
        }
    ],
    "orbital_data": {
        "orbit_id": "7",
        "orbit_determination_date": "2017-04-06 08:35:26",
        "first_observation_date": "2015-02-17",
        "last_observation_date": "2015-03-15",
        "data_arc_in_days": 26,
        "observations_used": 15,
        "orbit_uncertainty": "7",
        "minimum_orbit_intersection": ".251094",
        "jupiter_tisserand_invariant": "4.281",
        "epoch_osculation": "2459000.5",
        "eccentricity": ".2341340317615291",
        "semi_major_axis": "1.61907075419414",
        "inclination": "10.1550581842648",
        "ascending_node_longitude": "332.8071707754194",
        "orbital_period": "752.483824912715",
        "perihelion_distance": "1.239991190807486",
        "perihelion_argument": "193.1976368244775",
        "aphelion_distance": "1.998150317580793",
        "perihelion_time": "2459350.603939877519",
        "mean_anomaly": "192.5048138137365",
        "mean_motion": ".4784155992213633",
        "equinox": "J2000",
        "orbit_class": {
            "orbit_class_type": "AMO",
            "orbit_class_description": "Near-Earth asteroid orbits similar to that of 1221 Amor",
            "orbit_class_range": "1.017 AU < q (perihelion) < 1.3 AU"
        }
    },
    "is_sentry_object": false
}